OBJECT_NAME,OBJECT_ID,EPOCH,MEAN_MOTION,ECCENTRICITY,INCLINATION,RA_OF_ASC_NODE,ARG_OF_PERICENTER,MEAN_ANOMALY,EPHEMERIS_TYPE,CLASSIFICATION_TYPE,NORAD_CAT_ID,ELEMENT_SET_NO,REV_AT_EPOCH,BSTAR,MEAN_MOTION_DOT,MEAN_MOTION_DDOT
LEMUR-2-ROUNDTRIPPER,2025-009DG,2026-06-15T03:56:16.384128,15.03763626,.000513,97.7260,248.8457,136.8305,223.3323,0,U,62711,999,7732,.54531E-3,.7431E-4,0
LEMUR-2-MYNAMEISJEFF,2025-009DH,2026-06-15T03:53:59.739936,15.03771410,.0003347,97.7307,249.2241,158.1904,201.9465,0,U,62712,999,7732,.49941E-3,.68E-4,0
LEMUR-2-LEIA-PHILIP,2025-052AN,2026-06-15T03:09:38.251008,14.97315872,.0002361,97.6845,58.1173,215.8850,144.2214,0,U,63246,999,6836,.10707E-3,.1184E-4,0
LEMUR-2-LIA-MARTIN,2025-052AQ,2026-06-14T22:29:15.741600,14.97791500,.0002772,97.6910,58.3980,159.0213,201.1124,0,U,63248,999,6834,.32633E-3,.3775E-4,0
LEMUR-2-DELOITTE-1,2025-052BB,2026-06-15T04:19:41.268864,14.97589119,.0003303,97.6924,58.9659,101.4838,258.6755,0,U,63259,999,6839,.32483E-3,.3737E-4,0
LEMUR-2-EMERSONROSE,2025-052BD,2026-06-15T03:46:46.742016,14.99067505,.0001851,97.6894,59.4988,66.8748,293.2670,0,U,63261,999,6843,.25464E-3,.3032E-4,0
LEMUR-2-MARACHE-FRAN,2025-052BE,2026-06-15T03:13:14.316672,15.00085585,.0005584,97.6952,59.7875,30.3529,329.8017,0,U,63262,999,6845,.4158E-3,.5125E-4,0
LEMUR-2-THEFALCONER,2025-052BG,2026-06-14T16:07:26.098176,14.97377020,.00029915,97.6879,58.0891,41.4693,318.6755,0,U,63264,999,6831,.24852951E-3,.283E-4,0
LEMUR-2-UNTITLED-SC,2025-061A,2026-06-15T04:06:45.388224,15.13463322,.0016915,97.5630,141.5477,272.3793,87.5502,0,U,63351,999,6728,.18873E-3,.3319E-4,0
LEMUR-2-ESPERANZA,2025-061B,2026-06-15T05:09:12.856032,15.13557141,.0016573,97.5639,141.6837,271.4480,88.4852,0,U,63352,999,6729,.22907E-3,.4053E-4,0
LEMUR-2-KREMPEL-BRO2,2025-061C,2026-06-15T04:13:42.076416,15.13993516,.0017403,97.5687,142.1763,263.2056,96.7195,0,U,63353,999,6730,.18688E-3,.3336E-4,0
LEMUR-2-THERMORAPTOR,2025-061D,2026-06-15T03:48:01.954944,15.14071971,.0017185,97.5691,142.2339,262.1996,97.7285,0,U,63354,999,6730,.2228E-3,.3999E-4,0
LEMUR-2-NEUROSPICY,2025-061E,2026-06-15T04:42:37.586304,15.14188740,.0014999,97.5620,141.8994,266.0433,93.9084,0,U,63355,999,6731,.21306E-3,.3831E-4,0
LEMUR-2-TILLINFINITY,2025-061F,2026-06-15T03:59:23.179200,15.14772904,.0016291,97.5602,142.1585,252.9080,107.0367,0,U,63356,999,6733,.20361E-3,.3721E-4,0
LEMUR-2-KREMPEL-BRO1,2025-061G,2026-06-15T04:55:56.948736,15.14580036,.0016929,97.5605,142.1143,254.0544,105.8823,0,U,63357,999,6733,.22891E-3,.417E-4,0
LEMUR-2-LANGER2SPACE,2025-061H,2026-06-14T23:12:55.416384,15.14274798,.0014876,97.5607,141.6922,265.0068,94.9466,0,U,63358,999,6728,.22528E-3,.4064E-4,0
LEMUR-2-BALTO,2025-052BH,2026-06-14T23:39:02.712384,15.00066047,.0006903,97.6898,59.6201,63.7049,296.4883,0,U,63395,999,6843,.45277E-3,.5585E-4,0
LEMUR-2-KRISH,2025-135AK,2026-06-15T01:37:57.722880,14.96190887,.0001716,97.7745,280.9585,102.5248,257.6165,0,U,64561,999,5360,.48537E-3,.5414E-4,0
LEMUR-2-HUBBLE-4,2025-135AP,2026-06-15T03:01:28.426080,14.93191914,.0001065,97.7697,280.0570,321.7351,38.3793,0,U,64565,999,5356,.15418E-3,.1554E-4,0
LEMUR-2-SEJONG-2,2025-135BL,2026-06-15T05:34:39.857664,14.96683666,.0004014,97.7690,281.2666,347.6819,12.4304,0,U,64586,999,5365,.27976E-3,.3135E-4,0
LEMUR-2-HUBBLE-5,2025-135BT,2026-06-15T03:33:37.845216,14.94131327,.0005256,97.7716,280.7097,1.5459,358.5776,0,U,64840,999,5360,.13531E-3,.139E-4,0
LEMUR-2-KARENDARRELL,2025-135BU,2026-06-15T01:12:30.750624,15.00084915,.000953,97.7680,282.2616,210.4210,149.6462,0,U,64841,999,5369,.59E-3,.7303E-4,0
LEMUR-2-LUCILLE-ROSE,2025-135BV,2026-06-14T13:22:23.632608,15.00126663,.00109568,97.7771,281.7859,292.9349,67.0717,0,U,65403,999,4824,.51464518E-3,.637E-4,0
LEMUR-2-AFFIE-WAUWIE,2025-248C,2026-06-15T03:48:26.153856,15.27089116,.0007617,45.3893,125.9769,70.2843,289.8867,0,U,66295,999,3428,.54635E-3,.14524E-3,0
LEMUR-2-DEANANDMAEVE,2025-276N,2026-06-15T03:24:15.285312,15.19713195,.0005926,97.4218,239.6511,21.6090,338.5394,0,U,66678,999,3010,.31212E-3,.6603E-4,0
LEMUR-2-STAS-GORBUK,2025-276W,2026-06-15T03:44:27.789216,15.19361958,.0005245,97.4253,239.7201,21.7605,338.3851,0,U,66686,999,3010,.24412E-3,.5096E-4,0
LEMUR-2-TEODOR,2025-276DG,2026-06-15T03:24:18.832032,15.21032247,.0002099,97.4156,239.9399,117.6264,242.5185,0,U,66768,999,3013,.26244E-3,.5757E-4,0
LEMUR-2-LAILA,2025-276DQ,2026-06-15T04:21:53.904096,15.21252484,.0002106,97.4180,240.0988,138.4415,221.6981,0,U,66776,999,3014,.21435E-3,.4719E-4,0
LEMUR-2-CELIJO-SB-PK,2025-276DW,2026-06-15T04:02:54.757248,14.99960172,.0008876,97.5265,237.0118,137.4697,222.7216,0,U,66781,999,2232,.46115E-3,.5677E-4,0
LEMUR-2-FINNIAN,2025-276DX,2026-06-15T03:30:32.594112,15.00356381,.000885,97.5284,237.2022,95.4882,264.7352,0,U,66782,999,1969,.51746E-3,.6445E-4,0
